LIZZIESAT-2 (LS-2)      
1 62383U 24247G   26068.49140277  .00009388  00000+0  34517-3 0  9997
2 62383  44.9909 117.0823 0004092 327.5136  32.5495 15.28222796 67716
STARLINK-34236          
1 64743U 25144V   26068.57151855  .00020612  00000+0  70619-3 0  9995
2 64743  53.1600 181.5955 0001155  78.1403 281.9727 15.30196896 39691
